{"type": "FeatureCollection", "features": [ {"type": "Feature", "properties": {"norad_id": 38147, "name": "FENGYUN 1C DEB", "group": "fengyun-1c-debris", "lat": 4.262502553368486, "lon": 13.64386748588461, "alt_km": 824.8668633398793, "timestamp": "2025-12-26T10:30:50.557571+00:00", "meta": {"OBJECT_NAME": "FENGYUN 1C DEB", "OBJECT_ID": "1999-025EQU", "EPOCH": "2025-12-24T06:11:51.590400", "MEAN_MOTION": 14.23473632, "ECCENTRICITY": 0.00496347, "INCLINATION": 98.5575, "RA_OF_ASC_NODE": 12.1669, "ARG_OF_PERICENTER": 266.0478, "MEAN_ANOMALY": 93.5026, "EPHEMERIS_TYPE": 0, "CLASSIFICATION_TYPE": "U", "NORAD_CAT_ID": 38147, "ELEMENT_SET_NO": 999, "REV_AT_EPOCH": 60551, "BSTAR": 0.0005418078, "MEAN_MOTION_DOT": 1.204e-05, "MEAN_MOTION_DDOT": 0}, "tle": {"line1": "1 38147U 99025EQU 25358.25823600  .00001204  00000+0  54181-3 0  9995", "line2": "2 38147  98.5575  12.1669 0049634 266.0478  93.5026 14.23473632605515"}}, "geometry": {"type": "Point", "coordinates": [13.64386748588461, 4.262502553368486]}}, {"type": "Feature", "properties": {"norad_id": 38149, "name": "FENGYUN 1C DEB", "group": "fengyun-1c-debris", "lat": -81.19723162056195, "lon": 100.36705936466086, "alt_km": 859.3394342437732, "timestamp": "2025-12-26T10:30:50.557581+00:00", "meta": {"OBJECT_NAME": "FENGYUN 1C DEB", "OBJECT_ID": "1999-025EQW", "EPOCH": "2025-12-24T16:51:08.815968", "MEAN_MOTION": 14.25930229, "ECCENTRICITY": 0.00785452, "INCLINATION": 98.3575, "RA_OF_ASC_NODE": 350.3849, "ARG_OF_PERICENTER": 126.3504, "MEAN_ANOMALY": 234.4959, "EPHEMERIS_TYPE": 0, "CLASSIFICATION_TYPE": "U", "NORAD_CAT_ID": 38149, "ELEMENT_SET_NO": 999, "REV_AT_EPOCH": 70658, "BSTAR": 0.0001943926, "MEAN_MOTION_DOT": 4.38e-06, "MEAN_MOTION_DDOT": 0}, "tle": {"line1": "1 38149U 99025EQW 25358.70218537  .00000438  00000+0  19439-3 0  9999", "line2": "2 38149  98.3575 350.3849 0078545 126.3504 234.4959 14.25930229706585"}}, "geometry": {"type": "Point", "coordinates": [100.36705936466086, -81.19723162056195]}}, {"type": "Feature", "properties": {"norad_id": 38155, "name": "FENGYUN 1C DEB", "group": "fengyun-1c-debris", "lat": 13.817509983251417, "lon": 86.36793284902726, "alt_km": 794.8401968912576, "timestamp": "2025-12-26T10:30:50.557592+00:00", "meta": {"OBJECT_NAME": "FENGYUN 1C DEB", "OBJECT_ID": "1999-025ERC", "EPOCH": "2025-12-18T23:08:16.383264", "MEAN_MOTION": 14.25112386, "ECCENTRICITY": 0.00979258, "INCLINATION": 98.4473, "RA_OF_ASC_NODE": 257.0769, "ARG_OF_PERICENTER": 108.7402, "MEAN_ANOMALY": 252.4435, "EPHEMERIS_TYPE": 0, "CLASSIFICATION_TYPE": "U", "NORAD_CAT_ID": 38155, "ELEMENT_SET_NO": 999, "REV_AT_EPOCH": 63864, "BSTAR": 0.0016814228, "MEAN_MOTION_DOT": 4.107e-05, "MEAN_MOTION_DDOT": 0}, "tle": {"line1": "1 38155U 99025ERC 25352.96407851  .00004107  00000+0  16814-2 0  9997", "line2": "2 38155  98.4473 257.0769 0097925 108.7402 252.4435 14.25112386638644"}}, "geometry": {"type": "Point", "coordinates": [86.36793284902726, 13.817509983251417]}}, {"type": "Feature", "properties": {"norad_id": 38157, "name": "FENGYUN 1C DEB", "group": "fengyun-1c-debris", "lat": 49.71059952309612, "lon": -102.88776200699728, "alt_km": 635.0405433073311, "timestamp": "2025-12-26T10:30:50.557603+00:00", "meta": {"OBJECT_NAME": "FENGYUN 1C DEB", "OBJECT_ID": "1999-025ERE", "EPOCH": "2025-12-22T04:56:52.679328", "MEAN_MOTION": 14.21771497, "ECCENTRICITY": 0.02743434, "INCLINATION": 99.6568, "RA_OF_ASC_NODE": 264.065, "ARG_OF_PERICENTER": 87.817, "MEAN_ANOMALY": 275.4389, "EPHEMERIS_TYPE": 0, "CLASSIFICATION_TYPE": "U", "NORAD_CAT_ID": 38157, "ELEMENT_SET_NO": 999, "REV_AT_EPOCH": 76382, "BSTAR": 0.00067847723, "MEAN_MOTION_DOT": 2.134e-05, "MEAN_MOTION_DDOT": 0}, "tle": {"line1": "1 38157U 99025ERE 25356.20616527  .00002134  00000+0  67848-3 0  9994", "line2": "2 38157  99.6568 264.0650 0274343  87.8170 275.4389 14.21771497763823"}}, "geometry": {"type": "Point", "coordinates": [-102.88776200699728, 49.71059952309612]}}, {"type": "Feature", "properties": {"norad_id": 38159, "name": "FENGYUN 1C DEB", "group": "fengyun-1c-debris", "lat": -58.68120287010308, "lon": -91.93257585031351, "alt_km": 847.3487115024755, "timestamp": "2025-12-26T10:30:50.557613+00:00", "meta": {"OBJECT_NAME": "FENGYUN 1C DEB", "OBJECT_ID": "1999-025ERG", "EPOCH": "2025-12-04T22:05:20.152032", "MEAN_MOTION": 14.03448484, "ECCENTRICITY": 0.005704, "INCLINATION": 99.3156, "RA_OF_ASC_NODE": 230.39, "ARG_OF_PERICENTER": 2.347, "MEAN_ANOMALY": 357.7952, "EPHEMERIS_TYPE": 0, "CLASSIFICATION_TYPE": "U", "NORAD_CAT_ID": 38159, "ELEMENT_SET_NO": 999, "REV_AT_EPOCH": 83002, "BSTAR": 0.0010527, "MEAN_MOTION_DOT": 1.625e-05, "MEAN_MOTION_DDOT": 0}, "tle": {"line1": "1 38159U 99025ERG 25338.92037213  .00001625  00000+0  10527-2 0  9999", "line2": "2 38159  99.3156 230.3900 0057040   2.3470 357.7952 14.03448484830021"}}, "geometry": {"type": "Point", "coordinates": [-91.93257585031351, -58.68120287010308]}}, {"type": "Feature", "properties": {"norad_id": 38163, "name": "FENGYUN 1C DEB", "group": "fengyun-1c-debris", "lat": -18.734674360040458, "lon": 40.19667350225471, "alt_km": 918.5000107653395, "timestamp": "2025-12-26T10:30:50.557623+00:00", "meta": {"OBJECT_NAME": "FENGYUN 1C DEB", "OBJECT_ID": "1999-025ERL", "EPOCH": "2025-12-24T07:21:56.877984", "MEAN_MOTION": 14.05946513, "ECCENTRICITY": 0.00764665, "INCLINATION": 99.1277, "RA_OF_ASC_NODE": 34.9241, "ARG_OF_PERICENTER": 210.1825, "MEAN_ANOMALY": 149.4926, "EPHEMERIS_TYPE": 0, "CLASSIFICATION_TYPE": "U", "NORAD_CAT_ID": 38163, "ELEMENT_SET_NO": 999, "REV_AT_EPOCH": 24704, "BSTAR": 0.00077703552, "MEAN_MOTION_DOT": 1.261e-05, "MEAN_MOTION_DDOT": 0}, "tle": {"line1": "1 38163U 99025ERL 25358.30690831  .00001261  00000+0  77704-3 0  9996", "line2": "2 38163  99.1277  34.9241 0076466 210.1825 149.4926 14.05946513247049"}}, "geometry": {"type": "Point", "coordinates": [40.19667350225471, -18.734674360040458]}}, {"type": "Feature", "properties": {"norad_id": 38166, "name": "FENGYUN 1C DEB", "group": "fengyun-1c-debris", "lat": 16.355155708124553, "lon": 101.43340272080422, "alt_km": 752.4741161764923, "timestamp": "2025-12-26T10:30:50.557633+00:00", "meta": {"OBJECT_NAME": "FENGYUN 1C DEB", "OBJECT_ID": "1999-025ERP", "EPOCH": "2025-12-25T17:39:29.269152", "MEAN_MOTION": 14.31108062, "ECCENTRICITY": 0.00517597, "INCLINATION": 99.0777, "RA_OF_ASC_NODE": 103.3893, "ARG_OF_PERICENTER": 5.2769, "MEAN_ANOMALY": 354.8948, "EPHEMERIS_TYPE": 0, "CLASSIFICATION_TYPE": "U", "NORAD_CAT_ID": 38166, "ELEMENT_SET_NO": 999, "REV_AT_EPOCH": 63958, "BSTAR": 0.0026339768, "MEAN_MOTION_DOT": 7.006e-05, "MEAN_MOTION_DDOT": 0}, "tle": {"line1": "1 38166U 99025ERP 25359.73575543  .00007006  00000+0  26340-2 0  9991", "line2": "2 38166  99.0777 103.3893 0051759   5.2769 354.8948 14.31108062639586"}}, "geometry": {"type": "Point", "coordinates": [101.43340272080422, 16.355155708124553]}}, {"type": "Feature", "properties": {"norad_id": 38169, "name": "FENGYUN 1C DEB", "group": "fengyun-1c-debris", "lat": -6.264651860755261, "lon": -22.94973620961495, "alt_km": 640.005238518911, "timestamp": "2025-12-26T10:30:50.557644+00:00", "meta": {"OBJECT_NAME": "FENGYUN 1C DEB", "OBJECT_ID": "1999-025ERS", "EPOCH": "2025-12-17T04:37:40.598400", "MEAN_MOTION": 14.71570377, "ECCENTRICITY": 0.00320132, "INCLINATION": 98.9779, "RA_OF_ASC_NODE": 325.865, "ARG_OF_PERICENTER": 54.7995, "MEAN_ANOMALY": 305.6199, "EPHEMERIS_TYPE": 0, "CLASSIFICATION_TYPE": "U", "NORAD_CAT_ID": 38169, "ELEMENT_SET_NO": 999, "REV_AT_EPOCH": 61334, "BSTAR": 0.002130707, "MEAN_MOTION_DOT": 0.00013312, "MEAN_MOTION_DDOT": 0}, "tle": {"line1": "1 38169U 99025ERS 25351.19283100  .00013312  00000+0  21307-2 0  9996", "line2": "2 38169  98.9779 325.8650 0032013  54.7995 305.6199 14.71570377613347"}}, "geometry": {"type": "Point", "coordinates": [-22.94973620961495, -6.264651860755261]}}, {"type": "Feature", "properties": {"norad_id": 38173, "name": "FENGYUN 1C DEB", "group": "fengyun-1c-debris", "lat": 51.37145968125532, "lon": -110.14783508037874, "alt_km": 652.9980947806662, "timestamp": "2025-12-26T10:30:50.557654+00:00", "meta": {"OBJECT_NAME": "FENGYUN 1C DEB", "OBJECT_ID": "1999-025ERW", "EPOCH": "2025-12-25T22:34:52.894272", "MEAN_MOTION": 14.372448, "ECCENTRICITY": 0.016339, "INCLINATION": 98.9989, "RA_OF_ASC_NODE": 260.77, "ARG_OF_PERICENTER": 74.007, "MEAN_ANOMALY": 287.9045, "EPHEMERIS_TYPE": 0, "CLASSIFICATION_TYPE": "U", "NORAD_CAT_ID": 38173, "ELEMENT_SET_NO": 999, "REV_AT_EPOCH": 60833, "BSTAR": 0.00095573, "MEAN_MOTION_DOT": 3.27e-05, "MEAN_MOTION_DDOT": 0}, "tle": {"line1": "1 38173U 99025ERW 25359.94088998  .00003270  00000+0  95573-3 0  9999", "line2": "2 38173  98.9989 260.7700 0163390  74.0070 287.9045 14.37244800608336"}}, "geometry": {"type": "Point", "coordinates": [-110.14783508037874, 51.37145968125532]}}, {"type": "Feature", "properties": {"norad_id": 38493, "name": "FENGYUN 1C DEB", "group": "fengyun-1c-debris", "lat": 15.304244935399389, "lon": 141.4525224001196, "alt_km": 798.7191648438729, "timestamp": "2025-12-26T10:30:50.557664+00:00", "meta": {"OBJECT_NAME": "FENGYUN 1C DEB", "OBJECT_ID": "1999-025ESC", "EPOCH": "2025-12-24T15:22:34.770144", "MEAN_MOTION": 13.62325657, "ECCENTRICITY": 0.0426499, "INCLINATION": 99.0811, "RA_OF_ASC_NODE": 317.2644, "ARG_OF_PERICENTER": 214.2479, "MEAN_ANOMALY": 143.0477, "EPHEMERIS_TYPE": 0, "CLASSIFICATION_TYPE": "U", "NORAD_CAT_ID": 38493, "ELEMENT_SET_NO": 999, "REV_AT_EPOCH": 56660, "BSTAR": 0.00019268039, "MEAN_MOTION_DOT": 2.34e-06, "MEAN_MOTION_DDOT": 0}, "tle": {"line1": "1 38493U 99025ESC 25358.64068021  .00000234  00000+0  19268-3 0  9999", "line2": "2 38493  99.0811 317.2644 0426499 214.2479 143.0477 13.62325657566606"}}, "geometry": {"type": "Point", "coordinates": [141.4525224001196, 15.304244935399389]}}]}